[{"OBJECT_NAME":"STARLINK-4012","OBJECT_ID":"2022-052E","EPOCH":"2026-03-09T17:30:20.271456","MEAN_MOTION":15.08835354,"ECCENTRICITY":0.00019429,"INCLINATION":53.2173,"RA_OF_ASC_NODE":278.9389,"ARG_OF_PERICENTER":125.8751,"MEAN_ANOMALY":234.2422,"EPHEMERIS_TYPE":0,"CLASSIFICATION_TYPE":"U","NORAD_CAT_ID":52602,"ELEMENT_SET_NO":999,"REV_AT_EPOCH":21166,"BSTAR":0.00030722261,"MEAN_MOTION_DOT":4.604e-5,"MEAN_MOTION_DDOT":0},{"OBJECT_NAME":"FENGYUN 1C DEB","OBJECT_ID":"1999-025DFY","EPOCH":"2026-03-03T06:55:21.899424","MEAN_MOTION":15.25006274,"ECCENTRICITY":0.01038057,"INCLINATION":98.9901,"RA_OF_ASC_NODE":88.6648,"ARG_OF_PERICENTER":65.5781,"MEAN_ANOMALY":295.624,"EPHEMERIS_TYPE":0,"CLASSIFICATION_TYPE":"U","NORAD_CAT_ID":33687,"ELEMENT_SET_NO":999,"REV_AT_EPOCH":72733,"BSTAR":0.001670914,"MEAN_MOTION_DOT":0.00048845,"MEAN_MOTION_DDOT":0}]
